{
  "type": "FeatureCollection",
  "features": [
    {
      "type": "Feature",
      "properties": {
        "norad_id": 36188,
        "name": "FENGYUN 1C DEB",
        "group": "fengyun-1c-debris",
        "lat": -72.25965593271279,
        "lon": -131.83524968430962,
        "alt_km": 695.3360434438664,
        "timestamp": "2025-12-02T07:10:09.403464+00:00",
        "meta_object_name": "FENGYUN 1C DEB",
        "meta_object_id": "1999-025DTM",
        "meta_epoch": "2025-12-01T05:20:13.473024",
        "meta_mean_motion": 14.6025584,
        "meta_eccentricity": 0.0047349,
        "meta_inclination": 98.5854,
        "meta_ra_of_asc_node": 75.2295,
        "meta_arg_of_pericenter": 340.7793,
        "meta_mean_anomaly": 19.1618,
        "meta_ephemeris_type": 0,
        "meta_classification_type": "U",
        "meta_norad_cat_id": 36188,
        "meta_element_set_no": 999,
        "meta_rev_at_epoch": 87884,
        "meta_bstar": 0.002895,
        "meta_mean_motion_dot": 0.00014165,
        "meta_mean_motion_ddot": 0,
        "tle_line1": "1 36188U 99025DTM 25335.22237816  .00014165  00000+0  28950-2 0  9992",
        "tle_line2": "2 36188  98.5854  75.2295 0047349 340.7793  19.1618 14.60255840878843"
      },
      "geometry": {
        "type": "Point",
        "coordinates": [
          -131.83524968430962,
          -72.25965593271279
        ]
      }
    },
    {
      "type": "Feature",
      "properties": {
        "norad_id": 36198,
        "name": "FENGYUN 1C DEB",
        "group": "fengyun-1c-debris",
        "lat": 27.021088079388072,
        "lon": -169.44845004303045,
        "alt_km": 795.9592013066203,
        "timestamp": "2025-12-02T07:10:09.403474+00:00",
        "meta_object_name": "FENGYUN 1C DEB",
        "meta_object_id": "1999-025DTX",
        "meta_epoch": "2025-12-01T13:23:36.508416",
        "meta_mean_motion": 14.07811916,
        "meta_eccentricity": 0.00972077,
        "meta_inclination": 98.6251,
        "meta_ra_of_asc_node": 5.4045,
        "meta_arg_of_pericenter": 146.6779,
        "meta_mean_anomaly": 214.0561,
        "meta_ephemeris_type": 0,
        "meta_classification_type": "U",
        "meta_norad_cat_id": 36198,
        "meta_element_set_no": 999,
        "meta_rev_at_epoch": 63430,
        "meta_bstar": 0.0014591366,
        "meta_mean_motion_dot": 2.541e-05,
        "meta_mean_motion_ddot": 0,
        "tle_line1": "1 36198U 99025DTX 25335.55806144  .00002541  00000+0  14591-2 0  9996",
        "tle_line2": "2 36198  98.6251   5.4045 0097207 146.6779 214.0561 14.07811916634306"
      },
      "geometry": {
        "type": "Point",
        "coordinates": [
          -169.44845004303045,
          27.021088079388072
        ]
      }
    },
    {
      "type": "Feature",
      "properties": {
        "norad_id": 36199,
        "name": "FENGYUN 1C DEB",
        "group": "fengyun-1c-debris",
        "lat": -80.8183277447285,
        "lon": 113.4947459494961,
        "alt_km": 865.6617675213329,
        "timestamp": "2025-12-02T07:10:09.403484+00:00",
        "meta_object_name": "FENGYUN 1C DEB",
        "meta_object_id": "1999-025DTY",
        "meta_epoch": "2025-11-25T07:38:24.665856",
        "meta_mean_motion": 14.29614285,
        "meta_eccentricity": 0.00930984,
        "meta_inclination": 98.2914,
        "meta_ra_of_asc_node": 351.2942,
        "meta_arg_of_pericenter": 118.486,
        "meta_mean_anomaly": 242.5739,
        "meta_ephemeris_type": 0,
        "meta_classification_type": "U",
        "meta_norad_cat_id": 36199,
        "meta_element_set_no": 999,
        "meta_rev_at_epoch": 64731,
        "meta_bstar": 0.00030160311,
        "meta_mean_motion_dot": 7.69e-06,
        "meta_mean_motion_ddot": 0,
        "tle_line1": "1 36199U 99025DTY 25329.31834104  .00000769  00000+0  30160-3 0  9992",
        "tle_line2": "2 36199  98.2914 351.2942 0093098 118.4860 242.5739 14.29614285647311"
      },
      "geometry": {
        "type": "Point",
        "coordinates": [
          113.4947459494961,
          -80.8183277447285
        ]
      }
    },
    {
      "type": "Feature",
      "properties": {
        "norad_id": 36203,
        "name": "FENGYUN 1C DEB",
        "group": "fengyun-1c-debris",
        "lat": -2.9769968857685423,
        "lon": -80.79073782294155,
        "alt_km": 696.5809770613905,
        "timestamp": "2025-12-02T07:10:09.403495+00:00",
        "meta_object_name": "FENGYUN 1C DEB",
        "meta_object_id": "1999-025DUC",
        "meta_epoch": "2025-12-01T01:56:19.485312",
        "meta_mean_motion": 14.78079273,
        "meta_eccentricity": 0.00827819,
        "meta_inclination": 99.0954,
        "meta_ra_of_asc_node": 277.358,
        "meta_arg_of_pericenter": 185.1074,
        "meta_mean_anomaly": 174.9297,
        "meta_ephemeris_type": 0,
        "meta_classification_type": "U",
        "meta_norad_cat_id": 36203,
        "meta_element_set_no": 999,
        "meta_rev_at_epoch": 63257,
        "meta_bstar": 0.0012232753,
        "meta_mean_motion_dot": 9.305e-05,
        "meta_mean_motion_ddot": 0,
        "tle_line1": "1 36203U 99025DUC 25335.08078108  .00009305  00000+0  12233-2 0  9998",
        "tle_line2": "2 36203  99.0954 277.3580 0082781 185.1074 174.9297 14.78079273632576"
      },
      "geometry": {
        "type": "Point",
        "coordinates": [
          -80.79073782294155,
          -2.9769968857685423
        ]
      }
    },
    {
      "type": "Feature",
      "properties": {
        "norad_id": 36204,
        "name": "FENGYUN 1C DEB",
        "group": "fengyun-1c-debris",
        "lat": -27.71986618286986,
        "lon": 77.527510245893,
        "alt_km": 793.3563058140544,
        "timestamp": "2025-12-02T07:10:09.403505+00:00",
        "meta_object_name": "FENGYUN 1C DEB",
        "meta_object_id": "1999-025DUD",
        "meta_epoch": "2025-11-15T00:07:08.690880",
        "meta_mean_motion": 14.34305453,
        "meta_eccentricity": 0.00191329,
        "meta_inclination": 99.2913,
        "meta_ra_of_asc_node": 54.0163,
        "meta_arg_of_pericenter": 239.43,
        "meta_mean_anomaly": 120.4995,
        "meta_ephemeris_type": 0,
        "meta_classification_type": "U",
        "meta_norad_cat_id": 36204,
        "meta_element_set_no": 999,
        "meta_rev_at_epoch": 94030,
        "meta_bstar": 0.0018806033,
        "meta_mean_motion_dot": 5.247e-05,
        "meta_mean_motion_ddot": 0,
        "tle_line1": "1 36204U 99025DUD 25319.00496170  .00005247  00000+0  18806-2 0  9999",
        "tle_line2": "2 36204  99.2913  54.0163 0019132 239.4300 120.4995 14.34305453940304"
      },
      "geometry": {
        "type": "Point",
        "coordinates": [
          77.527510245893,
          -27.71986618286986
        ]
      }
    },
    {
      "type": "Feature",
      "properties": {
        "norad_id": 36206,
        "name": "FENGYUN 1C DEB",
        "group": "fengyun-1c-debris",
        "lat": 64.65188784334082,
        "lon": -161.78033230449986,
        "alt_km": 804.1134167062582,
        "timestamp": "2025-12-02T07:10:09.403515+00:00",
        "meta_object_name": "FENGYUN 1C DEB",
        "meta_object_id": "1999-025DUF",
        "meta_epoch": "2025-11-26T07:02:56.668416",
        "meta_mean_motion": 14.21517518,
        "meta_eccentricity": 0.00312218,
        "meta_inclination": 98.4807,
        "meta_ra_of_asc_node": 354.0922,
        "meta_arg_of_pericenter": 66.8272,
        "meta_mean_anomaly": 293.619,
        "meta_ephemeris_type": 0,
        "meta_classification_type": "U",
        "meta_norad_cat_id": 36206,
        "meta_element_set_no": 999,
        "meta_rev_at_epoch": 64187,
        "meta_bstar": 0.00073137291,
        "meta_mean_motion_dot": 1.568e-05,
        "meta_mean_motion_ddot": 0,
        "tle_line1": "1 36206U 99025DUF 25330.29371144  .00001568  00000+0  73137-3 0  9999",
        "tle_line2": "2 36206  98.4807 354.0922 0031221  66.8272 293.6190 14.21517518641871"
      },
      "geometry": {
        "type": "Point",
        "coordinates": [
          -161.78033230449986,
          64.65188784334082
        ]
      }
    },
    {
      "type": "Feature",
      "properties": {
        "norad_id": 36211,
        "name": "FENGYUN 1C DEB",
        "group": "fengyun-1c-debris",
        "lat": 81.19362431710879,
        "lon": -105.18322881803857,
        "alt_km": 987.384360754726,
        "timestamp": "2025-12-02T07:10:09.403525+00:00",
        "meta_object_name": "FENGYUN 1C DEB",
        "meta_object_id": "1999-025DUL",
        "meta_epoch": "2025-12-01T17:16:14.279808",
        "meta_mean_motion": 14.25927251,
        "meta_eccentricity": 0.0266541,
        "meta_inclination": 98.503,
        "meta_ra_of_asc_node": 329.193,
        "meta_arg_of_pericenter": 261.2872,
        "meta_mean_anomaly": 95.8036,
        "meta_ephemeris_type": 0,
        "meta_classification_type": "U",
        "meta_norad_cat_id": 36211,
        "meta_element_set_no": 999,
        "meta_rev_at_epoch": 94212,
        "meta_bstar": 0.00059239,
        "meta_mean_motion_dot": 1.999e-05,
        "meta_mean_motion_ddot": 0,
        "tle_line1": "1 36211U 99025DUL 25335.71960972  .00001999  00000+0  59239-3 0  9995",
        "tle_line2": "2 36211  98.5030 329.1930 0266541 261.2872  95.8036 14.25927251942126"
      },
      "geometry": {
        "type": "Point",
        "coordinates": [
          -105.18322881803857,
          81.19362431710879
        ]
      }
    }
  ]
}